{
  "type": "FeatureCollection",
  "features": [
    {
      "type": "Feature",
      "properties": {
        "norad_id": 29268,
        "name": "ARIRANG-2 (KOMPSAT-2)",
        "group": "resource",
        "lat": -3.2119378514212866,
        "lon": 3.0844394515143447,
        "alt_km": 683.061679872676,
        "timestamp": "2025-12-21T11:31:42.498381+00:00",
        "meta_object_name": "ARIRANG-2 (KOMPSAT-2)",
        "meta_object_id": "2006-031A",
        "meta_epoch": "2025-12-21T04:44:05.375616",
        "meta_mean_motion": 14.64500179,
        "meta_eccentricity": 0.0013173,
        "meta_inclination": 97.8253,
        "meta_ra_of_asc_node": 183.2575,
        "meta_arg_of_pericenter": 280.0794,
        "meta_mean_anomaly": 211.6957,
        "meta_ephemeris_type": 0,
        "meta_classification_type": "U",
        "meta_norad_cat_id": 29268,
        "meta_element_set_no": 999,
        "meta_rev_at_epoch": 3542,
        "meta_bstar": 4.1435e-05,
        "meta_mean_motion_dot": 1.75e-06,
        "meta_mean_motion_ddot": 0,
        "tle_line1": "1 29268U 06031A   25355.19728444  .00000175  00000+0  41435-4 0  9999",
        "tle_line2": "2 29268  97.8253 183.2575 0013173 280.0794 211.6957 14.64500179 35421"
      },
      "geometry": {
        "type": "Point",
        "coordinates": [
          3.0844394515143447,
          -3.2119378514212866
        ]
      }
    },
    {
      "type": "Feature",
      "properties": {
        "norad_id": 29709,
        "name": "LAPAN-TUBSAT",
        "group": "resource",
        "lat": 62.43048117615831,
        "lon": -30.064022931788596,
        "alt_km": 596.3492823936213,
        "timestamp": "2025-12-21T11:31:42.498392+00:00",
        "meta_object_name": "LAPAN-TUBSAT",
        "meta_object_id": "2007-001A",
        "meta_epoch": "2025-12-21T04:46:42.504384",
        "meta_mean_motion": 14.85682337,
        "meta_eccentricity": 0.0013359,
        "meta_inclination": 98.1252,
        "meta_ra_of_asc_node": 345.5295,
        "meta_arg_of_pericenter": 49.319,
        "meta_mean_anomaly": 310.9183,
        "meta_ephemeris_type": 0,
        "meta_classification_type": "U",
        "meta_norad_cat_id": 29709,
        "meta_element_set_no": 999,
        "meta_rev_at_epoch": 2472,
        "meta_bstar": 9.2168e-05,
        "meta_mean_motion_dot": 7.43e-06,
        "meta_mean_motion_ddot": 0,
        "tle_line1": "1 29709U 07001A   25355.19910306  .00000743  00000+0  92168-4 0  9997",
        "tle_line2": "2 29709  98.1252 345.5295 0013359  49.3190 310.9183 14.85682337 24723"
      },
      "geometry": {
        "type": "Point",
        "coordinates": [
          -30.064022931788596,
          62.43048117615831
        ]
      }
    },
    {
      "type": "Feature",
      "properties": {
        "norad_id": 31113,
        "name": "HAIYANG-1B",
        "group": "resource",
        "lat": 29.38376610013809,
        "lon": -25.335922842433025,
        "alt_km": 777.5106980911323,
        "timestamp": "2025-12-21T11:31:42.498403+00:00",
        "meta_object_name": "HAIYANG-1B",
        "meta_object_id": "2007-010A",
        "meta_epoch": "2025-12-20T20:17:13.259040",
        "meta_mean_motion": 14.30967553,
        "meta_eccentricity": 0.0013866,
        "meta_inclination": 98.3321,
        "meta_ra_of_asc_node": 338.7888,
        "meta_arg_of_pericenter": 14.9776,
        "meta_mean_anomaly": 345.1816,
        "meta_ephemeris_type": 0,
        "meta_classification_type": "U",
        "meta_norad_cat_id": 31113,
        "meta_element_set_no": 999,
        "meta_rev_at_epoch": 97512,
        "meta_bstar": 4.2056e-05,
        "meta_mean_motion_dot": 6.9e-07,
        "meta_mean_motion_ddot": 0,
        "tle_line1": "1 31113U 07010A   25354.84529235  .00000069  00000+0  42056-4 0  9999",
        "tle_line2": "2 31113  98.3321 338.7888 0013866  14.9776 345.1816 14.30967553975125"
      },
      "geometry": {
        "type": "Point",
        "coordinates": [
          -25.335922842433025,
          29.38376610013809
        ]
      }
    },
    {
      "type": "Feature",
      "properties": {
        "norad_id": 31598,
        "name": "COSMO-SKYMED 1",
        "group": "resource",
        "lat": -22.427216386952605,
        "lon": -175.78451093807564,
        "alt_km": 585.5008032893347,
        "timestamp": "2025-12-21T11:31:42.498415+00:00",
        "meta_object_name": "COSMO-SKYMED 1",
        "meta_object_id": "2007-023A",
        "meta_epoch": "2025-12-21T03:36:08.057664",
        "meta_mean_motion": 14.95825548,
        "meta_eccentricity": 0.0001555,
        "meta_inclination": 97.8838,
        "meta_ra_of_asc_node": 180.6046,
        "meta_arg_of_pericenter": 82.2669,
        "meta_mean_anomaly": 277.8728,
        "meta_ephemeris_type": 0,
        "meta_classification_type": "U",
        "meta_norad_cat_id": 31598,
        "meta_element_set_no": 999,
        "meta_rev_at_epoch": 316,
        "meta_bstar": 0.00023531,
        "meta_mean_motion_dot": 2.568e-05,
        "meta_mean_motion_ddot": 0,
        "tle_line1": "1 31598U 07023A   25355.15009326  .00002568  00000+0  23531-3 0  9991",
        "tle_line2": "2 31598  97.8838 180.6046 0001555  82.2669 277.8728 14.95825548  3167"
      },
      "geometry": {
        "type": "Point",
        "coordinates": [
          -175.78451093807564,
          -22.427216386952605
        ]
      }
    },
    {
      "type": "Feature",
      "properties": {
        "norad_id": 31698,
        "name": "TERRASAR-X",
        "group": "resource",
        "lat": 6.563021216490788,
        "lon": -0.12866827458075242,
        "alt_km": 510.413302281725,
        "timestamp": "2025-12-21T11:31:42.498426+00:00",
        "meta_object_name": "TERRASAR-X",
        "meta_object_id": "2007-026A",
        "meta_epoch": "2025-12-20T11:47:12.844032",
        "meta_mean_motion": 15.19153914,
        "meta_eccentricity": 0.0001874,
        "meta_inclination": 97.4453,
        "meta_ra_of_asc_node": 359.7585,
        "meta_arg_of_pericenter": 92.6145,
        "meta_mean_anomaly": 267.5304,
        "meta_ephemeris_type": 0,
        "meta_classification_type": "U",
        "meta_norad_cat_id": 31698,
        "meta_element_set_no": 999,
        "meta_rev_at_epoch": 2609,
        "meta_bstar": 3.1273e-05,
        "meta_mean_motion_dot": 5.9e-06,
        "meta_mean_motion_ddot": 0,
        "tle_line1": "1 31698U 07026A   25354.49112088  .00000590  00000+0  31273-4 0  9997",
        "tle_line2": "2 31698  97.4453 359.7585 0001874  92.6145 267.5304 15.19153914 26093"
      },
      "geometry": {
        "type": "Point",
        "coordinates": [
          -0.12866827458075242,
          6.563021216490788
        ]
      }
    },
    {
      "type": "Feature",
      "properties": {
        "norad_id": 32060,
        "name": "WORLDVIEW-1 (WV-1)",
        "group": "resource",
        "lat": 1.3838968160785858,
        "lon": -66.98454619893259,
        "alt_km": 499.38877536068867,
        "timestamp": "2025-12-21T11:31:42.498437+00:00",
        "meta_object_name": "WORLDVIEW-1 (WV-1)",
        "meta_object_id": "2007-041A",
        "meta_epoch": "2025-12-20T18:59:18.403872",
        "meta_mean_motion": 15.23883027,
        "meta_eccentricity": 0.000347,
        "meta_inclination": 97.3825,
        "meta_ra_of_asc_node": 112.1576,
        "meta_arg_of_pericenter": 9.7326,
        "meta_mean_anomaly": 350.3978,
        "meta_ephemeris_type": 0,
        "meta_classification_type": "U",
        "meta_norad_cat_id": 32060,
        "meta_element_set_no": 999,
        "meta_rev_at_epoch": 1570,
        "meta_bstar": 0.00024401,
        "meta_mean_motion_dot": 5.82e-05,
        "meta_mean_motion_ddot": 0,
        "tle_line1": "1 32060U 07041A   25354.79118523  .00005820  00000+0  24401-3 0  9996",
        "tle_line2": "2 32060  97.3825 112.1576 0003470   9.7326 350.3978 15.23883027 15708"
      },
      "geometry": {
        "type": "Point",
        "coordinates": [
          -66.98454619893259,
          1.3838968160785858
        ]
      }
    },
    {
      "type": "Feature",
      "properties": {
        "norad_id": 32289,
        "name": "YAOGAN-3",
        "group": "resource",
        "lat": 0.6998186705104715,
        "lon": 21.930348584773476,
        "alt_km": 600.9925369894536,
        "timestamp": "2025-12-21T11:31:42.498448+00:00",
        "meta_object_name": "YAOGAN-3",
        "meta_object_id": "2007-055A",
        "meta_epoch": "2025-12-21T05:04:40.539648",
        "meta_mean_motion": 14.89892881,
        "meta_eccentricity": 0.0001111,
        "meta_inclination": 97.8354,
        "meta_ra_of_asc_node": 21.7604,
        "meta_arg_of_pericenter": 75.2167,
        "meta_mean_anomaly": 284.9174,
        "meta_ephemeris_type": 0,
        "meta_classification_type": "U",
        "meta_norad_cat_id": 32289,
        "meta_element_set_no": 999,
        "meta_rev_at_epoch": 97935,
        "meta_bstar": 0.00014027,
        "meta_mean_motion_dot": 1.293e-05,
        "meta_mean_motion_ddot": 0,
        "tle_line1": "1 32289U 07055A   25355.21158032  .00001293  00000+0  14027-3 0  9994",
        "tle_line2": "2 32289  97.8354  21.7604 0001111  75.2167 284.9174 14.89892881979350"
      },
      "geometry": {
        "type": "Point",
        "coordinates": [
          21.930348584773476,
          0.6998186705104715
        ]
      }
    }
  ]
}